NORAD_CAT_ID,OBJECT_NAME,OBJECT_TYPE,EPOCH,MEAN_MOTION,ECCENTRICITY,INCLINATION,RA_OF_ASC_NODE,ARG_OF_PERICENTER,MEAN_ANOMALY,BSTAR,MEAN_MOTION_DOT,MEAN_MOTION_DDOT,TLE_LINE0,TLE_LINE1,TLE_LINE2,SEMIMAJOR_AXIS,PERIOD,APOGEE,PERIGEE,DECAYED
51966.0,STARLINK-3699,PAYLOAD,2023-11-22 20:56:55,15.06411832,0.0001482,53.0539,191.9341,88.8333,271.2826,0.00068239,9.9e-05,0.0,0 STARLINK-3699,1 51966U 22025L   23326.87286765  .00009900  00000-0  68239-3 0  9992,2 51966  53.0539 191.9341 0001482  88.8333 271.2826 15.06411832 94642,6925.312,95.591,548.204,546.151,0.0
51966.0,STARLINK-3699,PAYLOAD,2023-11-22 22:32:27,15.06417023,0.0001512,53.0543,191.6365,86.5904,273.5258,0.00073592,0.00010702,0.0,0 STARLINK-3699,1 51966U 22025L   23326.93921231  .00010702  00000-0  73592-3 0  9993,2 51966  53.0543 191.6365 0001512  86.5904 273.5258 15.06417023 95747,6925.296,95.591,548.208,546.114,0.0
51966.0,STARLINK-3699,PAYLOAD,2023-11-23 19:14:28,15.06399574,0.0001464,53.0541,187.7654,92.7878,267.3278,-0.00012022,-2.072e-05,0.0,0 STARLINK-3699,1 51966U 22025L   23327.80172252 -.00002072  00000-0 -12022-3 0  9995,2 51966  53.0541 187.7654 0001464  92.7878 267.3278 15.06399574 95874,6925.35,95.592,548.229,546.201,0.0
51966.0,STARLINK-3699,PAYLOAD,2023-11-23 22:25:33,15.06396162,0.000161,53.0545,187.1701,85.6911,274.4261,-0.00017335,-2.862e-05,0.0,0 STARLINK-3699,1 51966U 22025L   23327.93441806 -.00002862  00000-0 -17335-3 0  9992,2 51966  53.0545 187.1701 0001610  85.6911 274.4261 15.06396162 94800,6925.36,95.592,548.34,546.11,0.0
51966.0,STARLINK-3699,PAYLOAD,2023-11-24 00:01:06,15.06396478,0.0001487,53.0543,186.8716,91.1994,268.9165,-0.00015222,-2.548e-05,0.0,0 STARLINK-3699,1 51966U 22025L   23328.00076417 -.00002548  00000-0 -15222-3 0  9997,2 51966  53.0543 186.8716 0001487  91.1994 268.9165 15.06396478 94817,6925.359,95.592,548.254,546.195,0.0
51966.0,STARLINK-3699,PAYLOAD,2023-11-24 20:43:06,15.06402299,0.0001458,53.0537,183.0017,90.4033,269.7123,0.00014893,1.938e-05,0.0,0 STARLINK-3699,1 51966U 22025L   23328.86327373  .00001938  00000-0  14893-3 0  9994,2 51966  53.0537 183.0017 0001458  90.4033 269.7123 15.06402299 94943,6925.342,95.592,548.216,546.197,0.0
51966.0,STARLINK-3699,PAYLOAD,2023-11-25 09:27:25,15.06403945,0.0001471,53.0535,180.6199,91.5293,268.5864,0.00036998,5.234e-05,0.0,0 STARLINK-3699,1 51966U 22025L   23329.39404971  .00005234  00000-0  36998-3 0  9996,2 51966  53.0535 180.6199 0001471  91.5293 268.5864 15.06403945 95028,6925.336,95.592,548.22,546.183,0.0
51966.0,STARLINK-3699,PAYLOAD,2023-11-25 20:36:12,15.0641155,0.0001452,53.0531,178.5344,90.8801,269.2354,0.00047293,6.772e-05,0.0,0 STARLINK-3699,1 51966U 22025L   23329.85847485  .00006772  00000-0  47293-3 0  9996,2 51966  53.0531 178.5344 0001452  90.8801 269.2354 15.06411550 95098,6925.313,95.591,548.184,546.173,0.0
51966.0,STARLINK-3699,PAYLOAD,2023-11-26 18:53:45,15.06401561,0.0001384,53.0521,174.3632,85.2457,274.8689,6.3159e-05,6.59e-06,0.0,0 STARLINK-3699,1 51966U 22025L   23330.78733019  .00000659  00000-0  63159-4 0  9995,2 51966  53.0521 174.3632 0001384  85.2457 274.8689 15.06401561 96321,6925.344,95.592,548.167,546.25,0.0
51966.0,STARLINK-3699,PAYLOAD,2023-11-27 14:00:15,15.0637409,0.0001148,53.0516,170.7859,99.7432,260.3686,-0.00029578,-4.681e-05,0.0,0 STARLINK-3699,1 51966U 22025L   23331.58350913 -.00004681  00000-0 -29578-3 0  9999,2 51966  53.0516 170.7859 0001148  99.7432 260.3686 15.06374090 95352,6925.428,95.594,548.088,546.498,0.0
51966.0,STARLINK-3699,PAYLOAD,2023-11-27 18:46:52,15.0637349,0.0001298,53.0522,169.8942,96.133,263.9807,-0.00027894,-4.431e-05,0.0,0 STARLINK-3699,1 51966U 22025L   23331.78255344 -.00004431  00000-0 -27894-3 0  9995,2 51966  53.0522 169.8942 0001298  96.1330 263.9807 15.06373490 96476,6925.43,95.594,548.194,546.396,0.0
51966.0,STARLINK-3699,PAYLOAD,2023-11-27 20:22:25,15.06377187,0.0001305,53.0535,169.596,100.3754,259.7382,-0.00014273,-2.405e-05,0.0,0 STARLINK-3699,1 51966U 22025L   23331.84890684 -.00002405  00000-0 -14273-3 0  9990,2 51966  53.0535 169.5960 0001305 100.3754 259.7382 15.06377187 95392,6925.418,95.594,548.187,546.38,0.0
51966.0,STARLINK-3699,PAYLOAD,2023-11-28 18:39:57,15.06394459,0.0001201,53.0544,165.426,86.3611,273.7515,9.6092e-05,1.15e-05,0.0,0 STARLINK-3699,1 51966U 22025L   23332.77775325  .00001150  00000-0  96092-4 0  9991,2 51966  53.0544 165.4260 0001201  86.3611 273.7515 15.06394459 96622,6925.366,95.592,548.062,546.399,0.0
51966.0,STARLINK-3699,PAYLOAD,2023-11-28 21:51:02,15.06407953,0.0001161,53.0549,164.8279,104.395,255.7168,2.9249e-05,1.54e-06,0.0,0 STARLINK-3699,1 51966U 22025L   23332.91044009  .00000154  00000-0  29249-4 0  9998,2 51966  53.0549 164.8279 0001161 104.3950 255.7168 15.06407953 95551,6925.324,95.592,547.993,546.385,0.0
51966.0,STARLINK-3699,PAYLOAD,2023-11-29 12:10:54,15.06400682,0.000115,53.0536,162.1479,97.7117,262.4002,0.00048861,7.004e-05,0.0,0 STARLINK-3699,1 51966U 22025L   23333.50757036  .00007004  00000-0  48861-3 0  9996,2 51966  53.0536 162.1479 0001150  97.7117 262.4002 15.06400682 96733,6925.346,95.592,548.008,546.415,0.0
51966.0,STARLINK-3699,PAYLOAD,2023-11-29 20:08:35,15.06426147,0.0001115,53.0527,160.6602,92.2105,267.9012,0.00076384,0.00011122,0.0,0 STARLINK-3699,1 51966U 22025L   23333.83929650  .00011122  00000-0  76384-3 0  9992,2 51966  53.0527 160.6602 0001115  92.2105 267.9012 15.06426147 96782,6925.268,95.59,547.906,546.361,0.0
51966.0,STARLINK-3699,PAYLOAD,2023-11-30 12:03:59,15.063917,0.0001264,53.0525,157.6822,97.9482,262.1651,-0.00012088,-2.081e-05,0.0,0 STARLINK-3699,1 51966U 22025L   23334.50277269 -.00002081  00000-0 -12088-3 0  9996,2 51966  53.0525 157.6822 0001264  97.9482 262.1651 15.06391700 96888,6925.374,95.593,548.114,546.364,0.0
51966.0,STARLINK-3699,PAYLOAD,2023-12-01 18:19:14,15.06410527,0.000124,53.0527,152.0229,92.3936,267.7195,0.00084389,0.00012314,0.0,0 STARLINK-3699,1 51966U 22025L   23335.76336570  .00012314  00000-0  84389-3 0  9997,2 51966  53.0527 152.0229 0001240  92.3936 267.7195 15.06410527 97072,6925.316,95.591,548.04,546.323,0.0
51966.0,STARLINK-3699,PAYLOAD,2023-12-02 11:50:09,15.06442209,0.0001212,53.0529,148.7461,86.8143,273.2985,0.0014446,0.00021326,0.0,0 STARLINK-3699,1 51966U 22025L   23336.49316765  .00021326  00000-0  14446-2 0  9991,2 51966  53.0529 148.7461 0001212  86.8143 273.2985 15.06442209 96093,6925.219,95.589,547.924,546.245,0.0
51966.0,STARLINK-3699,PAYLOAD,2023-12-02 18:12:18,15.06432832,0.0001209,53.0532,147.5547,86.32,273.7927,0.0006471,9.379e-05,0.0,0 STARLINK-3699,1 51966U 22025L   23336.75855035  .00009379  00000-0  64710-3 0  9992,2 51966  53.0532 147.5547 0001209  86.3200 273.7927 15.06432832 96131,6925.248,95.59,547.95,546.276,0.0
51966.0,STARLINK-3699,PAYLOAD,2023-12-03 18:05:24,15.06395294,0.0001271,53.0549,143.0853,89.8883,270.2251,-0.000278,-4.419e-05,0.0,0 STARLINK-3699,1 51966U 22025L   23337.75375610 -.00004419  00000-0 -27800-3 0  9990,2 51966  53.0549 143.0853 0001271  89.8883 270.2251 15.06395294 97373,6925.363,95.592,548.108,546.348,0.0
51966.0,STARLINK-3699,PAYLOAD,2023-12-04 11:36:20,15.06399533,0.0001278,53.0551,139.8086,83.5587,276.5548,2.4257e-05,8e-07,0.0,0 STARLINK-3699,1 51966U 22025L   23338.48357137  .00000080  00000-0  24257-4 0  9997,2 51966  53.0551 139.8086 0001278  83.5587 276.5548 15.06399533 96395,6925.35,95.592,548.1,546.33,0.0
51966.0,STARLINK-3699,PAYLOAD,2023-12-04 19:34:02,15.06407004,0.000205,53.0541,138.3206,80.0527,280.0693,0.00016927,2.241e-05,0.0,0 STARLINK-3699,1 51966U 22025L   23338.81530125  .00002241  00000-0  16927-3 0  9999,2 51966  53.0541 138.3206 0002050  80.0527 280.0693 15.06407004 97538,6925.327,95.592,548.612,545.772,0.0
51966.0,STARLINK-3699,PAYLOAD,2023-12-05 11:29:26,15.06399697,0.0001597,53.0548,135.3421,89.8414,270.2758,0.00021206,2.878e-05,0.0,0 STARLINK-3699,1 51966U 22025L   23339.47877373  .00002878  00000-0  21206-3 0  9993,2 51966  53.0548 135.3421 0001597  89.8414 270.2758 15.06399697 97630,6925.349,95.592,548.32,546.109,0.0
51966.0,STARLINK-3699,PAYLOAD,2023-12-05 19:27:08,15.06390607,0.0001406,53.0551,133.8527,82.0415,278.0734,-4.223e-05,-9.1e-06,0.0,0 STARLINK-3699,1 51966U 22025L   23339.81051160 -.00000910  00000-0 -42230-4 0  9997,2 51966  53.0551 133.8527 0001406  82.0415 278.0734 15.06390607 97686,6925.377,95.593,548.216,546.269,0.0
51966.0,STARLINK-3699,PAYLOAD,2023-12-06 19:20:15,15.06372588,0.000211,53.0542,129.3842,83.4705,276.6524,-0.00023181,-3.73e-05,0.0,0 STARLINK-3699,1 51966U 22025L   23340.80573505 -.00003730  00000-0 -23181-3 0  9996,2 51966  53.0542 129.3842 0002110  83.4705 276.6524 15.06372588 97832,6925.433,95.594,548.759,545.836,0.0
51966.0,STARLINK-3699,PAYLOAD,2023-12-07 09:40:08,15.06367677,0.0002105,53.054,126.7051,81.5299,278.5929,-8.278e-05,-1.513e-05,0.0,0 STARLINK-3699,1 51966U 22025L   23341.40287150 -.00001513  00000-0 -82780-4 0  9999,2 51966  53.0540 126.7051 0002105  81.5299 278.5929 15.06367677 96836,6925.448,95.594,548.77,545.855,0.0
51966.0,STARLINK-3699,PAYLOAD,2023-12-07 19:13:19,15.06409479,0.0001058,53.0517,124.9176,112.6584,247.4517,-1.6282e-05,-5.24e-06,0.0,0 STARLINK-3699,1 51966U 22025L   23341.80092507 -.00000524  00000-0 -16282-4 0  9998,2 51966  53.0517 124.9176 0001058 112.6584 247.4517 15.06409479 97989,6925.32,95.592,547.917,546.452,0.0
51966.0,STARLINK-3699,PAYLOAD,2023-12-08 09:33:09,15.06428593,9.33e-05,53.0548,122.2363,166.4406,193.6608,0.00065409,9.482e-05,0.0,0 STARLINK-3699,1 51966U 22025L   23342.39803085  .00009482  00000-0  65409-3 0  9998,2 51966  53.0548 122.2363 0000933 166.4406 193.6608 15.06428593 98075,6925.261,95.59,547.772,546.48,0.0
51966.0,STARLINK-3699,PAYLOAD,2023-12-08 11:08:42,15.06438759,0.0001564,53.0522,121.9401,88.8713,271.2455,0.00076801,0.00011188,0.0,0 STARLINK-3699,1 51966U 22025L   23342.46438215  .00011188  00000-0  76801-3 0  9999,2 51966  53.0522 121.9401 0001564  88.8713 271.2455 15.06438759 96992,6925.23,95.59,548.178,546.012,0.0
